{
  "type": "FeatureCollection",
  "features": [
    {
      "type": "Feature",
      "properties": {
        "norad_id": 66661,
        "name": "SNUGLITE-III",
        "group": "last-30-days",
        "lat": -64.52944091749676,
        "lon": 88.16102848190413,
        "alt_km": 586.0473298784345,
        "timestamp": "2025-12-23T16:57:11.060310+00:00",
        "meta_object_name": "SNUGLITE-III",
        "meta_object_id": "2025-274M",
        "meta_epoch": "2025-12-23T06:12:20.744352",
        "meta_mean_motion": 14.93147562,
        "meta_eccentricity": 0.00133813,
        "meta_inclination": 97.7404,
        "meta_ra_of_asc_node": 284.3116,
        "meta_arg_of_pericenter": 243.3372,
        "meta_mean_anomaly": 116.6478,
        "meta_ephemeris_type": 0,
        "meta_classification_type": "U",
        "meta_norad_cat_id": 66661,
        "meta_element_set_no": 999,
        "meta_rev_at_epoch": 397,
        "meta_bstar": 0.00022656156,
        "meta_mean_motion_dot": 2.31e-05,
        "meta_mean_motion_ddot": 0,
        "tle_line1": "1 66661U 25274M   25357.25857343  .00002310  00000+0  22656-3 0  9993",
        "tle_line2": "2 66661  97.7404 284.3116 0013381 243.3372 116.6478 14.93147562  3977"
      },
      "geometry": {
        "type": "Point",
        "coordinates": [
          88.16102848190413,
          -64.52944091749676
        ]
      }
    },
    {
      "type": "Feature",
      "properties": {
        "norad_id": 66662,
        "name": "2025-274N",
        "group": "last-30-days",
        "lat": -69.69701230538598,
        "lon": 83.18460786725674,
        "alt_km": 585.7413887905523,
        "timestamp": "2025-12-23T16:57:11.060320+00:00",
        "meta_object_name": "2025-274N",
        "meta_object_id": "2025-274N",
        "meta_epoch": "2025-12-23T06:10:53.504544",
        "meta_mean_motion": 14.93203035,
        "meta_eccentricity": 0.00138212,
        "meta_inclination": 97.7405,
        "meta_ra_of_asc_node": 284.3134,
        "meta_arg_of_pericenter": 243.0295,
        "meta_mean_anomaly": 116.9514,
        "meta_ephemeris_type": 0,
        "meta_classification_type": "U",
        "meta_norad_cat_id": 66662,
        "meta_element_set_no": 999,
        "meta_rev_at_epoch": 397,
        "meta_bstar": 0.00023367034,
        "meta_mean_motion_dot": 2.388e-05,
        "meta_mean_motion_ddot": 0,
        "tle_line1": "1 66662U 25274N   25357.25756371  .00002388  00000+0  23367-3 0  9998",
        "tle_line2": "2 66662  97.7405 284.3134 0013821 243.0295 116.9514 14.93203035  3971"
      },
      "geometry": {
        "type": "Point",
        "coordinates": [
          83.18460786725674,
          -69.69701230538598
        ]
      }
    },
    {
      "type": "Feature",
      "properties": {
        "norad_id": 66663,
        "name": "KSLV-II R/B",
        "group": "last-30-days",
        "lat": -58.517525104937306,
        "lon": -62.21251424859406,
        "alt_km": 542.2179718223224,
        "timestamp": "2025-12-23T16:57:11.060330+00:00",
        "meta_object_name": "KSLV-II R/B",
        "meta_object_id": "2025-274P",
        "meta_epoch": "2025-12-22T12:21:01.502208",
        "meta_mean_motion": 14.97512069,
        "meta_eccentricity": 0.00600634,
        "meta_inclination": 97.744,
        "meta_ra_of_asc_node": 283.767,
        "meta_arg_of_pericenter": 285.279,
        "meta_mean_anomaly": 74.1797,
        "meta_ephemeris_type": 0,
        "meta_classification_type": "U",
        "meta_norad_cat_id": 66663,
        "meta_element_set_no": 999,
        "meta_rev_at_epoch": 387,
        "meta_bstar": 0.00095055268,
        "meta_mean_motion_dot": 0.00011449,
        "meta_mean_motion_ddot": 0,
        "tle_line1": "1 66663U 25274P   25356.51460072  .00011449  00000+0  95055-3 0  9998",
        "tle_line2": "2 66663  97.7440 283.7670 0060063 285.2790  74.1797 14.97512069  3878"
      },
      "geometry": {
        "type": "Point",
        "coordinates": [
          -62.21251424859406,
          -58.517525104937306
        ]
      }
    },
    {
      "type": "Feature",
      "properties": {
        "norad_id": 66664,
        "name": "SOYUZ-MS 28",
        "group": "last-30-days",
        "lat": 36.51563836777281,
        "lon": 124.08103187236739,
        "alt_km": 413.587324580114,
        "timestamp": "2025-12-23T16:57:11.060340+00:00",
        "meta_object_name": "SOYUZ-MS 28",
        "meta_object_id": "2025-275A",
        "meta_epoch": "2025-12-23T04:21:36.091008",
        "meta_mean_motion": 15.49746572,
        "meta_eccentricity": 0.00031904,
        "meta_inclination": 51.6323,
        "meta_ra_of_asc_node": 90.7678,
        "meta_arg_of_pericenter": 289.6661,
        "meta_mean_anomaly": 70.3984,
        "meta_ephemeris_type": 0,
        "meta_classification_type": "U",
        "meta_norad_cat_id": 66664,
        "meta_element_set_no": 999,
        "meta_rev_at_epoch": 128,
        "meta_bstar": 0.00021350548,
        "meta_mean_motion_dot": 0.00011641,
        "meta_mean_motion_ddot": 0,
        "tle_line1": "1 66664U 25275A   25357.18166772  .00011641  00000+0  21351-3 0  9996",
        "tle_line2": "2 66664  51.6323  90.7678 0003190 289.6661  70.3984 15.49746572  1280"
      },
      "geometry": {
        "type": "Point",
        "coordinates": [
          124.08103187236739,
          36.51563836777281
        ]
      }
    },
    {
      "type": "Feature",
      "properties": {
        "norad_id": 66666,
        "name": "FORMOSAT-8A",
        "group": "last-30-days",
        "lat": 36.5407508672787,
        "lon": 63.765329794046615,
        "alt_km": 565.7087496754584,
        "timestamp": "2025-12-23T16:57:11.060353+00:00",
        "meta_object_name": "FORMOSAT-8A",
        "meta_object_id": "2025-276A",
        "meta_epoch": "2025-12-23T03:59:01.989600",
        "meta_mean_motion": 15.00345606,
        "meta_eccentricity": 0.00039001,
        "meta_inclination": 97.6578,
        "meta_ra_of_asc_node": 68.9557,
        "meta_arg_of_pericenter": 191.8855,
        "meta_mean_anomaly": 168.2277,
        "meta_ephemeris_type": 0,
        "meta_classification_type": "U",
        "meta_norad_cat_id": 66666,
        "meta_element_set_no": 999,
        "meta_rev_at_epoch": 365,
        "meta_bstar": 0.00038282841,
        "meta_mean_motion_dot": 4.746e-05,
        "meta_mean_motion_ddot": 0,
        "tle_line1": "1 66666U 25276A   25357.16599525  .00004746  00000+0  38283-3 0  9993",
        "tle_line2": "2 66666  97.6578  68.9557 0003900 191.8855 168.2277 15.00345606  3650"
      },
      "geometry": {
        "type": "Point",
        "coordinates": [
          63.765329794046615,
          36.5407508672787
        ]
      }
    },
    {
      "type": "Feature",
      "properties": {
        "norad_id": 66667,
        "name": "PELICAN-5",
        "group": "last-30-days",
        "lat": 43.63911058049235,
        "lon": -103.5513476340317,
        "alt_km": 509.07765996451144,
        "timestamp": "2025-12-23T16:57:11.060364+00:00",
        "meta_object_name": "PELICAN-5",
        "meta_object_id": "2025-276B",
        "meta_epoch": "2025-12-23T03:41:44.960640",
        "meta_mean_motion": 15.17500568,
        "meta_eccentricity": 0.00051372,
        "meta_inclination": 97.4439,
        "meta_ra_of_asc_node": 68.7435,
        "meta_arg_of_pericenter": 217.0063,
        "meta_mean_anomaly": 143.0817,
        "meta_ephemeris_type": 0,
        "meta_classification_type": "U",
        "meta_norad_cat_id": 66667,
        "meta_element_set_no": 999,
        "meta_rev_at_epoch": 370,
        "meta_bstar": 0.00096850418,
        "meta_mean_motion_dot": 0.00019388,
        "meta_mean_motion_ddot": 0,
        "tle_line1": "1 66667U 25276B   25357.15399260  .00019388  00000+0  96850-3 0  9999",
        "tle_line2": "2 66667  97.4439  68.7435 0005137 217.0063 143.0817 15.17500568  3709"
      },
      "geometry": {
        "type": "Point",
        "coordinates": [
          -103.5513476340317,
          43.63911058049235
        ]
      }
    },
    {
      "type": "Feature",
      "properties": {
        "norad_id": 66668,
        "name": "TRANSPORTER-15C",
        "group": "last-30-days",
        "lat": 81.96431915970449,
        "lon": 1.6234212526948038,
        "alt_km": 497.1680062237274,
        "timestamp": "2025-12-23T16:57:11.060374+00:00",
        "meta_object_name": "TRANSPORTER-15C",
        "meta_object_id": "2025-276C",
        "meta_epoch": "2025-12-22T16:55:56.699040",
        "meta_mean_motion": 15.2172719,
        "meta_eccentricity": 0.00267972,
        "meta_inclination": 97.4316,
        "meta_ra_of_asc_node": 68.2383,
        "meta_arg_of_pericenter": 290.281,
        "meta_mean_anomaly": 69.5546,
        "meta_ephemeris_type": 0,
        "meta_classification_type": "U",
        "meta_norad_cat_id": 66668,
        "meta_element_set_no": 999,
        "meta_rev_at_epoch": 363,
        "meta_bstar": 0.088401316,
        "meta_mean_motion_dot": 0.02259996,
        "meta_mean_motion_ddot": 0,
        "tle_line1": "1 66668U 25276C   25356.70551735  .02259996  00000+0  88401-1 0  9991",
        "tle_line2": "2 66668  97.4316  68.2383 0026797 290.2810  69.5546 15.21727190  3639"
      },
      "geometry": {
        "type": "Point",
        "coordinates": [
          1.6234212526948038,
          81.96431915970449
        ]
      }
    }
  ]
}